OBJECT_NAME,OBJECT_ID,EPOCH,MEAN_MOTION,ECCENTRICITY,INCLINATION,RA_OF_ASC_NODE,ARG_OF_PERICENTER,MEAN_ANOMALY,EPHEMERIS_TYPE,CLASSIFICATION_TYPE,NORAD_CAT_ID,ELEMENT_SET_NO,REV_AT_EPOCH,BSTAR,MEAN_MOTION_DOT,MEAN_MOTION_DDOT
ONEWEB-0190,2021-045AF,2024-01-20T14:53:05.740512,13.15547694,.0003003,87.8967,74.0843,103.4495,256.6970,0,U,48796,999,12885,-.26716E-3,-.88E-6,0
ONEWEB-0236,2021-045AG,2024-01-20T13:28:40.314144,13.15548510,.0001972,87.8978,74.0838,97.4153,262.7201,0,U,48797,999,12873,-.24498E-3,-.79E-6,0
ONEWEB-0248,2021-045AH,2024-01-20T13:46:55.391808,13.15547030,.0002656,87.8968,74.0850,90.5671,269.5764,0,U,48798,999,12889,.5882E-4,.35E-6,0
ONEWEB-0225,2021-045AJ,2024-01-20T14:18:51.952032,13.15548189,.0002384,87.8962,74.0867,97.3750,262.7651,0,U,48799,999,12890,.51875E-3,.208E-5,0
ONEWEB-0216,2021-045AL,2024-01-20T13:49:11.561664,13.15548842,.0001964,87.8967,74.1116,109.8038,250.3304,0,U,48801,999,12878,.1675E-3,.76E-6,0
ONEWEB-0239,2021-045AM,2024-01-20T13:56:03.039936,13.15546934,.0002764,87.8977,74.0732,92.4266,267.7181,0,U,48802,999,12882,.29418E-3,.124E-5,0
ONEWEB-0249,2021-060A,2024-01-20T14:28:39.658656,13.16593422,.0001787,87.9050,43.6297,89.6205,270.5131,0,U,48967,999,12400,.13614E-3,.65E-6,0
ONEWEB-0250,2021-060B,2024-01-20T14:35:32.553888,13.16594208,.000218,87.9048,43.6132,87.5737,272.5644,0,U,48968,999,12398,.1141E-2,.449E-5,0
ONEWEB-0252,2021-060D,2024-01-20T13:24:49.080096,13.16593322,.000185,87.9049,43.6319,98.5779,261.5561,0,U,48970,999,12404,-.73353E-3,-.268E-5,0
ONEWEB-0253,2021-060E,2024-01-20T14:58:18.213024,13.16595544,.000218,87.9039,43.6341,96.8764,263.2615,0,U,48971,999,12398,-.79238E-4,-.17E-6,0
ONEWEB-0254,2021-060F,2024-01-20T13:22:32.818656,13.16594444,.0002192,87.9050,43.6223,96.2271,263.9109,0,U,48972,999,12397,-.15984E-4,.7E-7,0
ONEWEB-0255,2021-060G,2024-01-20T14:17:16.891296,13.16595170,.0001872,87.9051,43.6498,92.3894,267.7451,0,U,48973,999,12405,.17406E-3,.79E-6,0
ONEWEB-0256,2021-060H,2024-01-20T14:54:53.022528,13.16595532,.0001717,87.9044,43.6435,97.6615,262.4711,0,U,48974,999,12402,-.19359E-3,-.61E-6,0
ONEWEB-0257,2021-060J,2024-01-20T13:52:12.065952,13.16593565,.0001881,87.9047,43.6267,100.6690,259.4653,0,U,48975,999,12397,.27261E-3,.117E-5,0
ONEWEB-0258,2021-060K,2024-01-20T13:54:27.571392,13.16595970,.000186,87.9049,43.6555,92.6644,267.4700,0,U,48976,999,12398,.11158E-3,.56E-6,0
ONEWEB-0259,2021-060L,2024-01-20T13:45:21.694464,13.16595590,.0002078,87.9047,43.6419,86.2117,273.9251,0,U,48977,999,12530,.18509E-3,.84E-6,0
ONEWEB-0260,2021-060M,2024-01-20T13:36:12.864384,13.16589534,.000176,87.9039,43.6726,116.4682,243.6630,0,U,48978,999,12399,.39094E-3,.162E-5,0
ONEWEB-0261,2021-060N,2024-01-20T14:37:47.104608,13.16595242,.0002371,87.9044,43.6528,99.8982,260.2416,0,U,48979,999,12535,.59313E-4,.36E-6,0
ONEWEB-0262,2021-060P,2024-01-20T14:10:26.320224,13.16593427,.00023,87.9049,43.6247,85.9988,274.1406,0,U,48980,999,12531,.27758E-3,.119E-5,0
ONEWEB-0263,2021-060Q,2024-01-20T14:56:02.371488,13.16594262,.0002389,87.9044,43.6298,95.0093,265.1311,0,U,48981,999,12398,-.86367E-4,-.2E-6,0
ONEWEB-0264,2021-060R,2024-01-20T14:00:10.747872,13.16594990,.0001888,87.9043,43.6509,95.4437,264.6909,0,U,48982,999,12527,.28615E-3,.122E-5,0
ONEWEB-0266,2021-060T,2024-01-20T14:30:56.312352,13.16593428,.0001754,87.9051,43.6273,86.4547,273.6785,0,U,48984,999,12527,.15024E-3,.7E-6,0
ONEWEB-0267,2021-060U,2024-01-20T14:46:53.992416,13.16592756,.0002152,87.9050,43.6261,101.0760,259.0613,0,U,48985,999,12398,-.38496E-4,-.2E-7,0
ONEWEB-0268,2021-060V,2024-01-20T14:01:19.343424,13.16593760,.0001828,87.9051,43.6387,99.6517,260.4820,0,U,48986,999,12424,.14686E-3,.69E-6,0
ONEWEB-0269,2021-060W,2024-01-20T13:33:57.869568,13.16594386,.0001772,87.9043,43.6636,95.1398,264.9935,0,U,48987,999,12531,.95087E-4,.49E-6,0
ONEWEB-0270,2021-060X,2024-01-20T13:59:00.802752,13.16613936,.0003002,87.9050,43.6499,88.3221,271.8254,0,U,48988,999,12536,.60849E-2,.234E-4,0
ONEWEB-0271,2021-060Y,2024-01-20T13:40:48.619488,13.16596748,.0002222,87.9048,43.6266,98.8557,261.2826,0,U,48989,999,12534,.10034E-3,.51E-6,0
ONEWEB-0272,2021-060Z,2024-01-20T14:12:43.048224,13.16595747,.0002075,87.9050,43.6488,99.0301,261.1065,0,U,48990,999,12400,.17146E-3,.78E-6,0
ONEWEB-0273,2021-060AA,2024-01-20T14:44:39.198912,13.16595647,.0002099,87.9049,43.6321,92.8971,267.2401,0,U,48991,999,12398,-.19761E-4,.5E-7,0
ONEWEB-0274,2021-060AB,2024-01-20T13:31:40.735488,13.16595406,.0001876,87.9048,43.6464,112.3817,247.7513,0,U,48992,999,12401,.65036E-4,.38E-6,0
