ONEWEB-0190             
1 48796U 21045AF  24020.62020533 -.00000088  00000+0 -26716-3 0  9997
2 48796  87.8967  74.0843 0003003 103.4495 256.6970 13.15547694128853
ONEWEB-0236             
1 48797U 21045AG  24020.56157771 -.00000079  00000+0 -24498-3 0  9991
2 48797  87.8978  74.0838 0001972  97.4153 262.7201 13.15548510128736
ONEWEB-0248             
1 48798U 21045AH  24020.57425222  .00000035  00000+0  58820-4 0  9999
2 48798  87.8968  74.0850 0002656  90.5671 269.5764 13.15547030128891
ONEWEB-0225             
1 48799U 21045AJ  24020.59643463  .00000208  00000+0  51875-3 0  9995
2 48799  87.8962  74.0867 0002384  97.3750 262.7651 13.15548189128903
ONEWEB-0216             
1 48801U 21045AL  24020.57582826  .00000076  00000+0  16750-3 0  9998
2 48801  87.8967  74.1116 0001964 109.8038 250.3304 13.15548842128781
ONEWEB-0239             
1 48802U 21045AM  24020.58059074  .00000124  00000+0  29418-3 0  9993
2 48802  87.8977  74.0732 0002764  92.4266 267.7181 13.15546934128825
ONEWEB-0249             
1 48967U 21060A   24020.60323679  .00000065  00000+0  13614-3 0  9995
2 48967  87.9050  43.6297 0001787  89.6205 270.5131 13.16593422124001
ONEWEB-0250             
1 48968U 21060B   24020.60801567  .00000449  00000+0  11410-2 0  9990
2 48968  87.9048  43.6132 0002180  87.5737 272.5644 13.16594208123982
ONEWEB-0252             
1 48970U 21060D   24020.55890139 -.00000268  00000+0 -73353-3 0  9996
2 48970  87.9049  43.6319 0001850  98.5779 261.5561 13.16593322124044
ONEWEB-0253             
1 48971U 21060E   24020.62382191 -.00000017  00000+0 -79238-4 0  9990
2 48971  87.9039  43.6341 0002180  96.8764 263.2615 13.16595544123980
ONEWEB-0254             
1 48972U 21060F   24020.55732429  .00000007  00000+0 -15984-4 0  9992
2 48972  87.9050  43.6223 0002192  96.2271 263.9109 13.16594444123975
ONEWEB-0255             
1 48973U 21060G   24020.59533439  .00000079  00000+0  17406-3 0  9995
2 48973  87.9051  43.6498 0001872  92.3894 267.7451 13.16595170124052
ONEWEB-0256             
1 48974U 21060H   24020.62144702 -.00000061  00000+0 -19359-3 0  9993
2 48974  87.9044  43.6435 0001717  97.6615 262.4711 13.16595532124023
ONEWEB-0257             
1 48975U 21060J   24020.57791743  .00000117  00000+0  27261-3 0  9992
2 48975  87.9047  43.6267 0001881 100.6690 259.4653 13.16593565123978
ONEWEB-0258             
1 48976U 21060K   24020.57948578  .00000056  00000+0  11158-3 0  9993
2 48976  87.9049  43.6555 0001860  92.6644 267.4700 13.16595970123982
ONEWEB-0259             
1 48977U 21060L   24020.57316776  .00000084  00000+0  18509-3 0  9991
2 48977  87.9047  43.6419 0002078  86.2117 273.9251 13.16595590124012
ONEWEB-0260             
1 48978U 21060M   24020.56681556  .00000162  00000+0  39094-3 0  9991
2 48978  87.9039  43.6726 0001760 116.4682 243.6630 13.16589534123997
ONEWEB-0261             
1 48979U 21060N   24020.60957297  .00000036  00000+0  59313-4 0  9992
2 48979  87.9044  43.6528 0002371  99.8982 260.2416 13.16595242124058
ONEWEB-0262             
1 48980U 21060P   24020.59058241  .00000119  00000+0  27758-3 0  9992
2 48980  87.9049  43.6247 0002300  85.9988 274.1406 13.16593427124019
ONEWEB-0263             
1 48981U 21060Q   24020.62224967 -.00000020  00000+0 -86367-4 0  9992
2 48981  87.9044  43.6298 0002389  95.0093 265.1311 13.16594262123985
ONEWEB-0264             
1 48982U 21060R   24020.58345773  .00000122  00000+0  28615-3 0  9999
2 48982  87.9043  43.6509 0001888  95.4437 264.6909 13.16594990123984
ONEWEB-0266             
1 48984U 21060T   24020.60481843  .00000070  00000+0  15024-3 0  9995
2 48984  87.9051  43.6273 0001754  86.4547 273.6785 13.16593428123973
ONEWEB-0267             
1 48985U 21060U   24020.61590269 -.00000002  00000+0 -38496-4 0  9996
2 48985  87.9050  43.6261 0002152 101.0760 259.0613 13.16592756123986
ONEWEB-0268             
1 48986U 21060V   24020.58425166  .00000069  00000+0  14686-3 0  9991
2 48986  87.9051  43.6387 0001828  99.6517 260.4820 13.16593760124240
ONEWEB-0269             
1 48987U 21060W   24020.56525312  .00000049  00000+0  95087-4 0  9997
2 48987  87.9043  43.6636 0001772  95.1398 264.9935 13.16594386124011
ONEWEB-0270             
1 48988U 21060X   24020.58264818  .00002340  00000+0  60849-2 0  9993
2 48988  87.9050  43.6499 0003002  88.3221 271.8254 13.16613936124052
ONEWEB-0271             
1 48989U 21060Y   24020.57000717  .00000051  00000+0  10034-3 0  9998
2 48989  87.9048  43.6266 0002222  98.8557 261.2826 13.16596748124052
ONEWEB-0272             
1 48990U 21060Z   24020.59216491  .00000078  00000+0  17146-3 0  9990
2 48990  87.9050  43.6488 0002075  99.0301 261.1065 13.16595747124006
ONEWEB-0273             
1 48991U 21060AA  24020.61434258  .00000005  00000+0 -19761-4 0  9994
2 48991  87.9049  43.6321 0002099  92.8971 267.2401 13.16595647123987
ONEWEB-0274             
1 48992U 21060AB  24020.56366592  .00000038  00000+0  65036-4 0  9995
2 48992  87.9048  43.6464 0001876 112.3817 247.7513 13.16595406124019
